COSMOS 1743             
1 16719U 86034A   25322.14255356  .00027849  00000+0  48542-3 0  9995
2 16719  82.5369 190.1047 0006476 358.9022   1.2214 15.50560724162928
SL-14 R/B               
1 16792U 86046B   25322.12787713  .00000649  00000+0  72289-4 0  9999
2 16792  82.4828 185.5563 0021805 234.7728 125.1447 14.85450305109842
SL-14 R/B               
1 16882U 86055B   25322.27344028  .00000837  00000+0  94003-4 0  9990
2 16882  82.5220 231.3589 0018638 345.7117 138.5913 14.85495211102824
AJISAI (EGS)            
1 16908U 86061A   25322.49296963 -.00000116  00000+0 -12798-3 0  9996
2 16908  50.0095  75.2725 0011205   4.9373  76.2967 12.44514126454154
COSMOS 1812             
1 17295U 87003A   25322.48955572  .00083350  00000+0  67358-3 0  9991
2 17295  82.4866 318.1640 0005720 125.7787 234.4008 15.70529171126844
SL-14 R/B               
1 17567U 87024B   25322.13442022  .00000688  00000+0  75848-4 0  9996
2 17567  82.5295 197.5663 0016726 270.7088  89.2212 14.85990659 71569
COSMOS 1833             
1 17589U 87027A   25322.08242563 -.00000138  00000+0 -47988-4 0  9991
2 17589  70.9139 200.6110 0021486   6.3856 353.7534 14.13018775994548
SL-16 R/B               
1 17590U 87027B   25321.95644677 -.00000149  00000+0 -50260-4 0  9999
2 17590  71.0002 151.9410 0007268 285.3516  74.6804 14.17147247999552
SL-14 R/B               
1 17912U 87038B   25322.27422131  .00000759  00000+0  85459-4 0  9997
2 17912  82.5038  41.7404 0019623 168.6332 191.5331 14.85228311 62699
COSMOS 1844             
1 17973U 87041A   25322.23570095  .00000199  00000+0  12839-3 0  9996
2 17973  70.8993 269.2519 0031353 194.4556 165.5673 14.14526048987820
SL-14 R/B               
1 18153U 87055B   25322.40514015  .00000778  00000+0  87073-4 0  9997
2 18153  82.4982  93.9201 0021290  25.2965 334.9289 14.85484546 53410
COSMOS 1867             
1 18187U 87060A   25322.22084722  .00000002  00000+0  38366-4 0  9998
2 18187  65.0102 258.8634 0013671 268.7019  91.2499 14.31480690  3988
