CCSDS_OMM_VERS = 2.0
CREATION_DATE  = 
ORIGINATOR     = 

OBJECT_NAME    = COSMOS 1743
OBJECT_ID      = 1986-034A
CENTER_NAME    = EARTH
REF_FRAME      = TEME
TIME_SYSTEM    = UTC
MEAN_ELEMENT_THEORY = SGP/SGP4

EPOCH          = 2025-11-18T03:25:16.626720
MEAN_MOTION    = 15.50560724
ECCENTRICITY   = .0006476
INCLINATION    = 82.5369
RA_OF_ASC_NODE = 190.1047
ARG_OF_PERICENTER = 358.9022
MEAN_ANOMALY   = 1.2214

EPHEMERIS_TYPE = 0
CLASSIFICATION_TYPE = U
NORAD_CAT_ID   = 16719
ELEMENT_SET_NO = 999
REV_AT_EPOCH   = 16292
BSTAR          = .48542E-3
MEAN_MOTION_DOT = .27849E-3
MEAN_MOTION_DDOT = 0

CCSDS_OMM_VERS = 2.0
CREATION_DATE  = 
ORIGINATOR     = 

OBJECT_NAME    = SL-14 R/B
OBJECT_ID      = 1986-046B
CENTER_NAME    = EARTH
REF_FRAME      = TEME
TIME_SYSTEM    = UTC
MEAN_ELEMENT_THEORY = SGP/SGP4

EPOCH          = 2025-11-18T03:04:08.584032
MEAN_MOTION    = 14.85450305
ECCENTRICITY   = .0021806
INCLINATION    = 82.4828
RA_OF_ASC_NODE = 185.5563
ARG_OF_PERICENTER = 234.7728
MEAN_ANOMALY   = 125.1447

EPHEMERIS_TYPE = 0
CLASSIFICATION_TYPE = U
NORAD_CAT_ID   = 16792
ELEMENT_SET_NO = 999
REV_AT_EPOCH   = 10984
BSTAR          = .72289E-4
MEAN_MOTION_DOT = .649E-5
MEAN_MOTION_DDOT = 0

CCSDS_OMM_VERS = 2.0
CREATION_DATE  = 
ORIGINATOR     = 

OBJECT_NAME    = SL-14 R/B
OBJECT_ID      = 1986-055B
CENTER_NAME    = EARTH
REF_FRAME      = TEME
TIME_SYSTEM    = UTC
MEAN_ELEMENT_THEORY = SGP/SGP4

EPOCH          = 2025-11-18T06:33:45.240192
MEAN_MOTION    = 14.85495211
ECCENTRICITY   = .0018638
INCLINATION    = 82.5220
RA_OF_ASC_NODE = 231.3589
ARG_OF_PERICENTER = 345.7117
MEAN_ANOMALY   = 138.5913

EPHEMERIS_TYPE = 0
CLASSIFICATION_TYPE = U
NORAD_CAT_ID   = 16882
ELEMENT_SET_NO = 999
REV_AT_EPOCH   = 10282
BSTAR          = .94003E-4
MEAN_MOTION_DOT = .837E-5
MEAN_MOTION_DDOT = 0

CCSDS_OMM_VERS = 2.0
CREATION_DATE  = 
ORIGINATOR     = 

OBJECT_NAME    = AJISAI (EGS)
OBJECT_ID      = 1986-061A
CENTER_NAME    = EARTH
REF_FRAME      = TEME
TIME_SYSTEM    = UTC
MEAN_ELEMENT_THEORY = SGP/SGP4

EPOCH          = 2025-11-18T11:49:52.576032
MEAN_MOTION    = 12.44514126
ECCENTRICITY   = .0011205
INCLINATION    = 50.0095
RA_OF_ASC_NODE = 75.2725
ARG_OF_PERICENTER = 4.9373
MEAN_ANOMALY   = 76.2967

EPHEMERIS_TYPE = 0
CLASSIFICATION_TYPE = U
NORAD_CAT_ID   = 16908
ELEMENT_SET_NO = 999
REV_AT_EPOCH   = 45415
BSTAR          = -.12798E-3
MEAN_MOTION_DOT = -.116E-5
MEAN_MOTION_DDOT = 0

CCSDS_OMM_VERS = 2.0
CREATION_DATE  = 
ORIGINATOR     = 

OBJECT_NAME    = COSMOS 1812
OBJECT_ID      = 1987-003A
CENTER_NAME    = EARTH
REF_FRAME      = TEME
TIME_SYSTEM    = UTC
MEAN_ELEMENT_THEORY = SGP/SGP4

EPOCH          = 2025-11-18T11:44:57.614208
MEAN_MOTION    = 15.70529171
ECCENTRICITY   = .000572
INCLINATION    = 82.4866
RA_OF_ASC_NODE = 318.1640
ARG_OF_PERICENTER = 125.7787
MEAN_ANOMALY   = 234.4008

EPHEMERIS_TYPE = 0
CLASSIFICATION_TYPE = U
NORAD_CAT_ID   = 17295
ELEMENT_SET_NO = 999
REV_AT_EPOCH   = 12684
BSTAR          = .67358E-3
MEAN_MOTION_DOT = .8335E-3
MEAN_MOTION_DDOT = 0

CCSDS_OMM_VERS = 2.0
CREATION_DATE  = 
ORIGINATOR     = 

OBJECT_NAME    = SL-14 R/B
OBJECT_ID      = 1987-024B
CENTER_NAME    = EARTH
REF_FRAME      = TEME
TIME_SYSTEM    = UTC
MEAN_ELEMENT_THEORY = SGP/SGP4

EPOCH          = 2025-11-18T03:13:33.907008
MEAN_MOTION    = 14.85990659
ECCENTRICITY   = .0016726
INCLINATION    = 82.5295
RA_OF_ASC_NODE = 197.5663
ARG_OF_PERICENTER = 270.7088
MEAN_ANOMALY   = 89.2212

EPHEMERIS_TYPE = 0
CLASSIFICATION_TYPE = U
NORAD_CAT_ID   = 17567
ELEMENT_SET_NO = 999
REV_AT_EPOCH   = 7156
BSTAR          = .75848E-4
MEAN_MOTION_DOT = .688E-5
MEAN_MOTION_DDOT = 0

CCSDS_OMM_VERS = 2.0
CREATION_DATE  = 
ORIGINATOR     = 

OBJECT_NAME    = COSMOS 1833
OBJECT_ID      = 1987-027A
CENTER_NAME    = EARTH
REF_FRAME      = TEME
TIME_SYSTEM    = UTC
MEAN_ELEMENT_THEORY = SGP/SGP4

EPOCH          = 2025-11-18T01:58:41.574432
MEAN_MOTION    = 14.13018775
ECCENTRICITY   = .0021487
INCLINATION    = 70.9139
RA_OF_ASC_NODE = 200.6110
ARG_OF_PERICENTER = 6.3856
MEAN_ANOMALY   = 353.7534

EPHEMERIS_TYPE = 0
CLASSIFICATION_TYPE = U
NORAD_CAT_ID   = 17589
ELEMENT_SET_NO = 999
REV_AT_EPOCH   = 99454
BSTAR          = -.47988E-4
MEAN_MOTION_DOT = -.138E-5
MEAN_MOTION_DDOT = 0

CCSDS_OMM_VERS = 2.0
CREATION_DATE  = 
ORIGINATOR     = 

OBJECT_NAME    = SL-16 R/B
OBJECT_ID      = 1987-027B
CENTER_NAME    = EARTH
REF_FRAME      = TEME
TIME_SYSTEM    = UTC
MEAN_ELEMENT_THEORY = SGP/SGP4

EPOCH          = 2025-11-17T22:57:17.000064
MEAN_MOTION    = 14.17147247
ECCENTRICITY   = .0007269
INCLINATION    = 71.0002
RA_OF_ASC_NODE = 151.9410
ARG_OF_PERICENTER = 285.3516
MEAN_ANOMALY   = 74.6804

EPHEMERIS_TYPE = 0
CLASSIFICATION_TYPE = U
NORAD_CAT_ID   = 17590
ELEMENT_SET_NO = 999
REV_AT_EPOCH   = 99955
BSTAR          = -.5026E-4
MEAN_MOTION_DOT = -.149E-5
MEAN_MOTION_DDOT = 0

CCSDS_OMM_VERS = 2.0
CREATION_DATE  = 
ORIGINATOR     = 

OBJECT_NAME    = SL-14 R/B
OBJECT_ID      = 1987-038B
CENTER_NAME    = EARTH
REF_FRAME      = TEME
TIME_SYSTEM    = UTC
MEAN_ELEMENT_THEORY = SGP/SGP4

EPOCH          = 2025-11-18T06:34:52.721184
MEAN_MOTION    = 14.85228311
ECCENTRICITY   = .0019623
INCLINATION    = 82.5038
RA_OF_ASC_NODE = 41.7404
ARG_OF_PERICENTER = 168.6332
MEAN_ANOMALY   = 191.5331

EPHEMERIS_TYPE = 0
CLASSIFICATION_TYPE = U
NORAD_CAT_ID   = 17912
ELEMENT_SET_NO = 999
REV_AT_EPOCH   = 6269
BSTAR          = .85459E-4
MEAN_MOTION_DOT = .759E-5
MEAN_MOTION_DDOT = 0

CCSDS_OMM_VERS = 2.0
CREATION_DATE  = 
ORIGINATOR     = 

OBJECT_NAME    = COSMOS 1844
OBJECT_ID      = 1987-041A
CENTER_NAME    = EARTH
REF_FRAME      = TEME
TIME_SYSTEM    = UTC
MEAN_ELEMENT_THEORY = SGP/SGP4

EPOCH          = 2025-11-18T05:39:24.562080
MEAN_MOTION    = 14.14526048
ECCENTRICITY   = .0031353
INCLINATION    = 70.8993
RA_OF_ASC_NODE = 269.2519
ARG_OF_PERICENTER = 194.4556
MEAN_ANOMALY   = 165.5673

EPHEMERIS_TYPE = 0
CLASSIFICATION_TYPE = U
NORAD_CAT_ID   = 17973
ELEMENT_SET_NO = 999
REV_AT_EPOCH   = 98782
BSTAR          = .12839E-3
MEAN_MOTION_DOT = .199E-5
MEAN_MOTION_DDOT = 0

CCSDS_OMM_VERS = 2.0
CREATION_DATE  = 
ORIGINATOR     = 

OBJECT_NAME    = SL-14 R/B
OBJECT_ID      = 1987-055B
CENTER_NAME    = EARTH
REF_FRAME      = TEME
TIME_SYSTEM    = UTC
MEAN_ELEMENT_THEORY = SGP/SGP4

EPOCH          = 2025-11-18T09:43:24.108960
MEAN_MOTION    = 14.85484546
ECCENTRICITY   = .002129
INCLINATION    = 82.4982
RA_OF_ASC_NODE = 93.9201
ARG_OF_PERICENTER = 25.2965
MEAN_ANOMALY   = 334.9289

EPHEMERIS_TYPE = 0
CLASSIFICATION_TYPE = U
NORAD_CAT_ID   = 18153
ELEMENT_SET_NO = 999
REV_AT_EPOCH   = 5341
BSTAR          = .87073E-4
MEAN_MOTION_DOT = .778E-5
MEAN_MOTION_DDOT = 0

CCSDS_OMM_VERS = 2.0
CREATION_DATE  = 
ORIGINATOR     = 

OBJECT_NAME    = COSMOS 1867
OBJECT_ID      = 1987-060A
CENTER_NAME    = EARTH
REF_FRAME      = TEME
TIME_SYSTEM    = UTC
MEAN_ELEMENT_THEORY = SGP/SGP4

EPOCH          = 2025-11-18T05:18:01.199808
MEAN_MOTION    = 14.31480690
ECCENTRICITY   = .0013671
INCLINATION    = 65.0102
RA_OF_ASC_NODE = 258.8634
ARG_OF_PERICENTER = 268.7019
MEAN_ANOMALY   = 91.2499

EPHEMERIS_TYPE = 0
CLASSIFICATION_TYPE = U
NORAD_CAT_ID   = 18187
ELEMENT_SET_NO = 999
REV_AT_EPOCH   = 398
BSTAR          = .38366E-4
MEAN_MOTION_DOT = .2E-7
MEAN_MOTION_DDOT = 0

